GSAT0216 (GALILEO 20)   
1 43056U 17079B   26191.18336701  .00000090  00000+0  00000+0 0  9997
2 43056  55.0690 220.8736 0004821 276.9654  83.0589  1.70474478 53392
GSAT0217 (GALILEO 21)   
1 43057U 17079C   26192.57733622  .00000088  00000+0  00000+0 0  9992
2 43057  55.0671 220.8331 0004474 291.1332  68.8993  1.70473980 53408
GSAT0218 (GALILEO 22)   
1 43058U 17079D   26192.79741165  .00000087  00000+0  00000+0 0  9997
2 43058  55.0670 220.8245 0005348 274.4620  85.5568  1.70474392 53432
BEIDOU-3 M7             
1 43107U 18003A   26191.43983110 -.00000068  00000+0  00000+0 0  9998
2 43107  54.3060 301.5047 0004517  98.3583 261.7116  1.86228296 57783
BEIDOU-3 M8             
1 43108U 18003B   26192.99509958 -.00000067  00000+0  00000+0 0  9994
2 43108  54.2974 301.4318 0003062 258.3591 101.6272  1.86231048 57827
BEIDOU-3 M4             
1 43207U 18018A   26192.36436679 -.00000044  00000+0  00000+0 0  9995
2 43207  56.6718  62.3521 0007463  27.7505 332.3554  1.86231098 57191
BEIDOU-3 M3             
1 43208U 18018B   26192.96782749 -.00000042  00000+0  00000+0 0  9992
2 43208  56.6719  62.3360 0007638 347.3210  12.7279  1.86230755 57206
BEIDOU-3 M9             
1 43245U 18029A   26192.11186513 -.00000063  00000+0  00000+0 0  9992
2 43245  54.1706 299.1126 0001163 180.6370 179.3856  1.86228202 56347
BEIDOU-3 M10            
1 43246U 18029B   26193.65697403 -.00000062  00000+0  00000+0 0  9997
2 43246  54.1671 299.0847 0003320  37.6590 322.3904  1.86229266 56356
IRNSS-1I                
1 43286U 18035A   26187.83739038  .00000079  00000+0  00000+0 0  9999
2 43286  28.7973  73.8917 0018087 180.4002  27.0525  1.00279237 30279
COSMOS 2527 [GLONASS-M] 
1 43508U 18053A   26192.95559067 -.00000017  00000+0  00000+0 0  9990
2 43508  65.5909  73.0818 0006568 230.8626 129.1456  2.13102167 62802
BEIDOU-2 IGSO-7         
1 43539U 18057A   26182.89122331 -.00000033  00000+0  00000+0 0  9998
2 43539  55.1981 162.9292 0104946 237.8611 308.6338  1.00246939 29273
GSAT0221 (GALILEO 25)   
1 43564U 18060A   26190.94173446 -.00000079  00000+0  00000+0 0  9998
2 43564  57.1621 341.1668 0002608 288.2741  71.6944  1.70476012 49555
GSAT0222 (GALILEO 26)   
1 43565U 18060B   26192.92116441 -.00000087  00000+0  00000+0 0  9990
2 43565  57.1642 341.1170 0002730 235.5377 124.4271  1.70475789 49632
GSAT0219 (GALILEO 23)   
1 43566U 18060C   26193.14202295 -.00000088  00000+0  00000+0 0  9990
2 43566  57.1635 341.1125 0001798 300.6290  59.3431  1.70476011 49617
GSAT0220 (GALILEO 24)   
1 43567U 18060D   26191.60328123 -.00000081  00000+0  00000+0 0  9992
2 43567  57.1637 341.1546 0002117 293.2596  66.7130  1.70475685 49578
BEIDOU-3 M5             
1 43581U 18062A   26193.34395808  .00000077  00000+0  00000+0 0  9991
2 43581  54.0867 181.4489 0005696 292.2984  67.6347  1.86228464 54104
BEIDOU-3 M6             
1 43582U 18062B   26193.20754524  .00000079  00000+0  00000+0 0  9993
2 43582  54.0860 181.4429 0005154   9.5773 350.4271  1.86227603 54109
BEIDOU-3 M12            
1 43602U 18067A   26192.60902484  .00000088  00000+0  00000+0 0  9994
2 43602  54.1816 180.2122 0007916  30.3589 329.6835  1.86227688 53573
BEIDOU-3 M11            
1 43603U 18067B   26193.28111065  .00000076  00000+0  00000+0 0  9994
2 43603  54.1790 180.1532 0004603  13.4814 346.5223  1.86227116 53612
BEIDOU-3 M13            
1 43622U 18072A   26193.23583289 -.00000041  00000+0  00000+0 0  9990
2 43622  56.6459  61.8341 0006253 333.6347  26.4027  1.86231235 53125
BEIDOU-3 M14            
1 43623U 18072B   26193.10125990 -.00000042  00000+0  00000+0 0  9999
2 43623  56.6480  61.8327 0005521  11.3250 348.7562  1.86231363 53119
BEIDOU-3 M16            
1 43647U 18078A   26193.25622594 -.00000062  00000+0  00000+0 0  9991
2 43647  54.0655 299.1068 0006667  39.9824 320.0915  1.86232175 52626
BEIDOU-3 M15            
1 43648U 18078B   26192.84854500 -.00000063  00000+0  00000+0 0  9991
2 43648  54.0617 299.1213 0003622  58.6259 301.4334  1.86232290 52632
BEIDOU-3 G1             
1 43683U 18085A   26193.39304071 -.00000111  00000+0  00000+0 0  9996
2 43683   2.9285  96.7040 0008075 355.6390 139.3891  1.00272641 28310
COSMOS 2529 [GLONASS-M] 
1 43687U 18086A   26192.11333993  .00000113  00000+0  00000+0 0  9996
2 43687  64.2969 191.7864 0012111 256.4030 103.4921  2.13101972 59794
BEIDOU-3 M17            
1 43706U 18093A   26192.74097604  .00000087  00000+0  00000+0 0  9991
2 43706  54.1700 181.4634 0010132 293.7587 245.5336  1.86228238 51996
BEIDOU-3 M18            
1 43707U 18093B   26192.87401650  .00000085  00000+0  00000+0 0  9994
2 43707  54.1711 181.4513 0008033 322.2876  37.6531  1.86226285 51998
NAVSTAR 77 (USA 289)    
1 43873U 18109A   26193.18993542 -.00000035  00000+0  00000+0 0  9993
2 43873  55.6965  91.2004 0038524 197.2608 339.6266  2.00562582 55571
BEIDOU-3 IGSO-1         
1 44204U 19023A   26193.48865076 -.00000205  00000+0  00000+0 0  9990
2 44204  58.7307  37.3896 0025673 224.1023 323.8830  1.00283752  7461
BEIDOU-2 G8             
1 44231U 19027A   26193.66283372 -.00000248  00000+0  00000+0 0  9994
2 44231   1.7190  74.5023 0009776 282.4077 316.7816  1.00272528 26337
